CCSDS_OMM_VERS = 2.0
CREATION_DATE  = 
ORIGINATOR     = 

OBJECT_NAME    = STARLINK-36947
OBJECT_ID      = 2026-040U
CENTER_NAME    = EARTH
REF_FRAME      = TEME
TIME_SYSTEM    = UTC
MEAN_ELEMENT_THEORY = SGP/SGP4

EPOCH          = 2026-03-07T22:00:01.999584
MEAN_MOTION    = 16.10126512
ECCENTRICITY   = .00008648
INCLINATION    = 97.2806
RA_OF_ASC_NODE = 14.9249
ARG_OF_PERICENTER = 96.4516
MEAN_ANOMALY   = 237.9921

EPHEMERIS_TYPE = 0
CLASSIFICATION_TYPE = U
NORAD_CAT_ID   = 68033
ELEMENT_SET_NO = 999
REV_AT_EPOCH   = 213
BSTAR          = -.97649268E-3
MEAN_MOTION_DOT = -.911021E-2
MEAN_MOTION_DDOT = .31192771E-3

CCSDS_OMM_VERS = 2.0
CREATION_DATE  = 
ORIGINATOR     = 

OBJECT_NAME    = STARLINK-36939
OBJECT_ID      = 2026-040V
CENTER_NAME    = EARTH
REF_FRAME      = TEME
TIME_SYSTEM    = UTC
MEAN_ELEMENT_THEORY = SGP/SGP4

EPOCH          = 2026-03-07T22:00:01.999584
MEAN_MOTION    = 16.10578503
ECCENTRICITY   = .00009054
INCLINATION    = 97.2805
RA_OF_ASC_NODE = 14.9276
ARG_OF_PERICENTER = 99.8762
MEAN_ANOMALY   = 241.0857

EPHEMERIS_TYPE = 0
CLASSIFICATION_TYPE = U
NORAD_CAT_ID   = 68034
ELEMENT_SET_NO = 999
REV_AT_EPOCH   = 213
BSTAR          = -.92539506E-3
MEAN_MOTION_DOT = -.889325E-2
MEAN_MOTION_DDOT = .30010794E-3

CCSDS_OMM_VERS = 2.0
CREATION_DATE  = 
ORIGINATOR     = 

OBJECT_NAME    = STARLINK-36943
OBJECT_ID      = 2026-040W
CENTER_NAME    = EARTH
REF_FRAME      = TEME
TIME_SYSTEM    = UTC
MEAN_ELEMENT_THEORY = SGP/SGP4

EPOCH          = 2026-03-07T22:00:01.999584
MEAN_MOTION    = 16.11251651
ECCENTRICITY   = .00007503
INCLINATION    = 97.2796
RA_OF_ASC_NODE = 14.9337
ARG_OF_PERICENTER = 98.5517
MEAN_ANOMALY   = 254.1911

EPHEMERIS_TYPE = 0
CLASSIFICATION_TYPE = U
NORAD_CAT_ID   = 68035
ELEMENT_SET_NO = 999
REV_AT_EPOCH   = 218
BSTAR          = -.86199964E-3
MEAN_MOTION_DOT = -.866013E-2
MEAN_MOTION_DDOT = .28829035E-3

CCSDS_OMM_VERS = 2.0
CREATION_DATE  = 
ORIGINATOR     = 

OBJECT_NAME    = STARLINK-36906
OBJECT_ID      = 2026-040X
CENTER_NAME    = EARTH
REF_FRAME      = TEME
TIME_SYSTEM    = UTC
MEAN_ELEMENT_THEORY = SGP/SGP4

EPOCH          = 2026-03-07T22:00:01.999584
MEAN_MOTION    = 16.10471959
ECCENTRICITY   = .00009142
INCLINATION    = 97.2803
RA_OF_ASC_NODE = 14.9271
ARG_OF_PERICENTER = 104.3686
MEAN_ANOMALY   = 235.1057

EPHEMERIS_TYPE = 0
CLASSIFICATION_TYPE = U
NORAD_CAT_ID   = 68036
ELEMENT_SET_NO = 999
REV_AT_EPOCH   = 213
BSTAR          = -.93079906E-3
MEAN_MOTION_DOT = -.888327E-2
MEAN_MOTION_DDOT = .29906258E-3

CCSDS_OMM_VERS = 2.0
CREATION_DATE  = 
ORIGINATOR     = 

OBJECT_NAME    = STARLINK-36388
OBJECT_ID      = 2026-040Y
CENTER_NAME    = EARTH
REF_FRAME      = TEME
TIME_SYSTEM    = UTC
MEAN_ELEMENT_THEORY = SGP/SGP4

EPOCH          = 2026-03-07T22:00:01.999584
MEAN_MOTION    = 16.10732484
ECCENTRICITY   = .00008357
INCLINATION    = 97.2803
RA_OF_ASC_NODE = 14.9287
ARG_OF_PERICENTER = 100.9871
MEAN_ANOMALY   = 242.0783

EPHEMERIS_TYPE = 0
CLASSIFICATION_TYPE = U
NORAD_CAT_ID   = 68037
ELEMENT_SET_NO = 999
REV_AT_EPOCH   = 208
BSTAR          = -.90398589E-3
MEAN_MOTION_DOT = -.877634E-2
MEAN_MOTION_DDOT = .29344813E-3

CCSDS_OMM_VERS = 2.0
CREATION_DATE  = 
ORIGINATOR     = 

OBJECT_NAME    = STARLINK-36895
OBJECT_ID      = 2026-040Z
CENTER_NAME    = EARTH
REF_FRAME      = TEME
TIME_SYSTEM    = UTC
MEAN_ELEMENT_THEORY = SGP/SGP4

EPOCH          = 2026-03-07T22:00:01.999584
MEAN_MOTION    = 16.10374933
ECCENTRICITY   = .00008861
INCLINATION    = 97.2800
RA_OF_ASC_NODE = 14.9264
ARG_OF_PERICENTER = 104.0872
MEAN_ANOMALY   = 233.7584

EPHEMERIS_TYPE = 0
CLASSIFICATION_TYPE = U
NORAD_CAT_ID   = 68038
ELEMENT_SET_NO = 999
REV_AT_EPOCH   = 213
BSTAR          = -.96061898E-3
MEAN_MOTION_DOT = -.910807E-2
MEAN_MOTION_DDOT = .31281184E-3

CCSDS_OMM_VERS = 2.0
CREATION_DATE  = 
ORIGINATOR     = 

OBJECT_NAME    = STARLINK-36373
OBJECT_ID      = 2026-040AA
CENTER_NAME    = EARTH
REF_FRAME      = TEME
TIME_SYSTEM    = UTC
MEAN_ELEMENT_THEORY = SGP/SGP4

EPOCH          = 2026-03-07T22:00:01.999584
MEAN_MOTION    = 16.10225502
ECCENTRICITY   = .00008975
INCLINATION    = 97.2802
RA_OF_ASC_NODE = 14.9258
ARG_OF_PERICENTER = 98.7783
MEAN_ANOMALY   = 237.1701

EPHEMERIS_TYPE = 0
CLASSIFICATION_TYPE = U
NORAD_CAT_ID   = 68039
ELEMENT_SET_NO = 999
REV_AT_EPOCH   = 208
BSTAR          = -.96064541E-3
MEAN_MOTION_DOT = -.902097E-2
MEAN_MOTION_DDOT = .30669716E-3

CCSDS_OMM_VERS = 2.0
CREATION_DATE  = 
ORIGINATOR     = 

OBJECT_NAME    = STARLINK-36711
OBJECT_ID      = 2026-041A
CENTER_NAME    = EARTH
REF_FRAME      = TEME
TIME_SYSTEM    = UTC
MEAN_ELEMENT_THEORY = SGP/SGP4

EPOCH          = 2026-03-07T22:00:01.999584
MEAN_MOTION    = 15.96841418
ECCENTRICITY   = .00004695
INCLINATION    = 53.1597
RA_OF_ASC_NODE = 71.3388
ARG_OF_PERICENTER = 89.2630
MEAN_ANOMALY   = 265.3900

EPHEMERIS_TYPE = 0
CLASSIFICATION_TYPE = U
NORAD_CAT_ID   = 68040
ELEMENT_SET_NO = 999
REV_AT_EPOCH   = 209
BSTAR          = -.32498466E-2
MEAN_MOTION_DOT = -.1425638E-1
MEAN_MOTION_DDOT = .61210391E-3

CCSDS_OMM_VERS = 2.0
CREATION_DATE  = 
ORIGINATOR     = 

OBJECT_NAME    = STARLINK-36825
OBJECT_ID      = 2026-041B
CENTER_NAME    = EARTH
REF_FRAME      = TEME
TIME_SYSTEM    = UTC
MEAN_ELEMENT_THEORY = SGP/SGP4

EPOCH          = 2026-03-07T22:00:01.999584
MEAN_MOTION    = 15.97110228
ECCENTRICITY   = .0000445
INCLINATION    = 53.1593
RA_OF_ASC_NODE = 71.3316
ARG_OF_PERICENTER = 87.1532
MEAN_ANOMALY   = 270.7402

EPHEMERIS_TYPE = 0
CLASSIFICATION_TYPE = U
NORAD_CAT_ID   = 68041
ELEMENT_SET_NO = 999
REV_AT_EPOCH   = 209
BSTAR          = -.32180126E-2
MEAN_MOTION_DOT = -.1432626E-1
MEAN_MOTION_DDOT = .61932578E-3

CCSDS_OMM_VERS = 2.0
CREATION_DATE  = 
ORIGINATOR     = 

OBJECT_NAME    = STARLINK-36925
OBJECT_ID      = 2026-041C
CENTER_NAME    = EARTH
REF_FRAME      = TEME
TIME_SYSTEM    = UTC
MEAN_ELEMENT_THEORY = SGP/SGP4

EPOCH          = 2026-03-07T22:00:01.999584
MEAN_MOTION    = 15.96983459
ECCENTRICITY   = .0000379
INCLINATION    = 53.1594
RA_OF_ASC_NODE = 71.3350
ARG_OF_PERICENTER = 90.8842
MEAN_ANOMALY   = 265.4833

EPHEMERIS_TYPE = 0
CLASSIFICATION_TYPE = U
NORAD_CAT_ID   = 68042
ELEMENT_SET_NO = 999
REV_AT_EPOCH   = 209
BSTAR          = -.32435942E-2
MEAN_MOTION_DOT = -.1433942E-1
MEAN_MOTION_DDOT = .61954987E-3

CCSDS_OMM_VERS = 2.0
CREATION_DATE  = 
ORIGINATOR     = 

OBJECT_NAME    = STARLINK-36902
OBJECT_ID      = 2026-041D
CENTER_NAME    = EARTH
REF_FRAME      = TEME
TIME_SYSTEM    = UTC
MEAN_ELEMENT_THEORY = SGP/SGP4

EPOCH          = 2026-03-07T22:00:01.999584
MEAN_MOTION    = 15.97223641
ECCENTRICITY   = .00004792
INCLINATION    = 53.1597
RA_OF_ASC_NODE = 71.3289
ARG_OF_PERICENTER = 92.6088
MEAN_ANOMALY   = 266.6669

EPHEMERIS_TYPE = 0
CLASSIFICATION_TYPE = U
NORAD_CAT_ID   = 68043
ELEMENT_SET_NO = 999
REV_AT_EPOCH   = 209
BSTAR          = -.31886624E-2
MEAN_MOTION_DOT = -.1428526E-1
MEAN_MOTION_DDOT = .61681714E-3

CCSDS_OMM_VERS = 2.0
CREATION_DATE  = 
ORIGINATOR     = 

OBJECT_NAME    = STARLINK-36966
OBJECT_ID      = 2026-041E
CENTER_NAME    = EARTH
REF_FRAME      = TEME
TIME_SYSTEM    = UTC
MEAN_ELEMENT_THEORY = SGP/SGP4

EPOCH          = 2026-03-07T22:00:01.999584
MEAN_MOTION    = 15.97481595
ECCENTRICITY   = .00004846
INCLINATION    = 53.1595
RA_OF_ASC_NODE = 71.3221
ARG_OF_PERICENTER = 85.4754
MEAN_ANOMALY   = 277.0819

EPHEMERIS_TYPE = 0
CLASSIFICATION_TYPE = U
NORAD_CAT_ID   = 68044
ELEMENT_SET_NO = 999
REV_AT_EPOCH   = 209
BSTAR          = -.31385301E-2
MEAN_MOTION_DOT = -.1426299E-1
MEAN_MOTION_DDOT = .61671867E-3

